DMSP 5D-3 F16 (USA 172) 
1 28054U 03048A   26064.31294979  .00000195  00000+0  12522-3 0  9995
2 28054  98.9997  87.4071 0008192  83.5516 287.4072 14.14460119154806
METEOSAT-9 (MSG-2)      
1 28912U 05049B   26064.07544802  .00000118  00000+0  00000+0 0  9996
2 28912   9.1265  55.1755 0001712 222.7266 317.8188  1.00277671  5959
DMSP 5D-3 F17 (USA 191) 
1 29522U 06050A   26064.29381737  .00000245  00000+0  14886-3 0  9999
2 29522  98.7413  72.9784 0010011 359.5758   0.5406 14.14961663997726
FENGYUN 3A              
1 32958U 08026A   26064.29468849  .00000161  00000+0  96918-4 0  9995
2 32958  98.6794   7.1251 0009786  69.6133 290.6093 14.19544776920666
GOES 14                 
1 35491U 09033A   26064.26651062  .00000119  00000+0  00000+0 0  9992
2 35491   1.4211  84.4101 0002301 300.2805  75.6316  1.00124871  5552
DMSP 5D-3 F18 (USA 210) 
1 35951U 09057A   26064.25706652  .00000359  00000+0  20915-3 0  9991
2 35951  98.8958  45.3014 0010877 180.8537 179.2620 14.14832680844891
EWS-G2 (GOES 15)        
1 36411U 10008A   26064.18725389  .00000013  00000+0  00000+0 0  9997
2 36411   1.0108  85.1296 0001932  19.6467 189.0339  1.00269479 58594
COMS 1                  
1 36744U 10032A   26063.90391825 -.00000352  00000+0  00000+0 0  9993
2 36744   4.5371  76.8626 0001200 285.2673 254.0982  1.00272186 50043
FENGYUN 3B              
1 37214U 10059A   26064.34596214  .00000298  00000+0  17732-3 0  9995
2 37214  98.9772 109.8553 0023004 119.9403 298.5268 14.14816298792741
SUOMI NPP               
1 37849U 11061A   26064.30269232  .00000152  00000+0  93115-4 0  9995
2 37849  98.7866   5.9403 0000397 272.7662  87.3468 14.19542164743703
METEOSAT-10 (MSG-3)     
1 38552U 12035B   26064.22673045 -.00000011  00000+0  00000+0 0  9992
2 38552   4.4256  61.4601 0002511 296.4567 246.9694  1.00277685 49810
METOP-B                 
1 38771U 12049A   26064.22157406  .00000172  00000+0  98496-4 0  9996
2 38771  98.6651 117.7299 0001200 290.4699  69.6349 14.21443047698494
INSAT-3D                
1 39216U 13038B   26064.26016903 -.00000347  00000+0  00000+0 0  9994
2 39216   1.6576  83.9021 0001733 243.9670  58.2745  1.00273114 46039
FENGYUN 3C              
1 39260U 13052A   26064.29399576  .00000158  00000+0  10177-3 0  9991
2 39260  98.4885  42.9955 0014036 326.4964  33.5322 14.15727322643865
METEOR-M 2              
1 40069U 14037A   26064.24869263  .00000338  00000+0  17374-3 0  9990
2 40069  98.5017  43.7237 0005656 351.1559   8.9518 14.21427262604550
HIMAWARI-8              
1 40267U 14060A   26064.24905831 -.00000284  00000+0  00000+0 0  9993
2 40267   0.0283 243.4839 0000746  89.7290  60.0808  1.00271783 41713
FENGYUN 2G              
1 40367U 14090A   26064.03250958 -.00000310  00000+0  00000+0 0  9997
2 40367   5.3757  74.0796 0001855 152.4589  47.6186  1.00274286 40955
